P/2012 C3 (PANSTARRS),e,9.0920,135.3677,344.9542,9.748681,0.0323806,0.63011148,359.9758,10/06.0/2011,2000,g 13.0,4.0
# From MPC 84931
P/2012 F2 (PANSTARRS),e,14.6965,226.9633,33.2884,6.339392,0.0617494,0.54046649,234.7676,09/01.0/2023,2000,g 12.0,4.0
# From MPEC 2022-ED3
P/2012 G1 (PANSTARRS),e,12.1694,283.2615,266.1057,4.164896,0.1159572,0.32903911,123.6609,09/01.0/2023,2000,g 15.0,4.0
# From MPC 80898
P/2012 K3 (Gibbs),e,13.1852,125.8202,172.2302,3.629469,0.1425409,0.42214735,210.4952,09/01.0/2023,2000,g 15.0,4.0
# From MPC 88326
P/2012 NJ (La Sagra),e,84.4958,315.6273,338.3888,8.466802,0.0400060,0.84663115,163.8016,09/01.0/2023,2000,g 14.5,4.0
# From MPC 81470
P/2012 O1 (McNaught),e,7.4262,91.9085,238.3534,3.542031,0.1478514,0.59402757,242.9246,09/01.0/2023,2000,g 17.5,4.0
# From MPC 80899
P/2012 O2 (McNaught),e,24.4594,120.6780,183.4746,3.627036,0.1426843,0.53166808,225.3991,09/01.0/2023,2000,g 17.0,4.0
# From MPEC 2022-F14
C/2012 S1 (ISON),h,12/01.7833/2013,62.3616,295.4488,346.1807,1.000019,0.014136,2000,8.5,3.2
# From MPC 82320
P/2012 T2 (PANSTARRS),e,12.5702,73.7194,310.9484,5.724962,0.0719524,0.16251170,271.1979,09/01.0/2023,2000,g 10.0,4.0
# From MPC 80900
P/2012 T3 (PANSTARRS),e,9.5542,114.3470,195.5505,6.152077,0.0645909,0.61630927,267.1013,09/01.0/2023,2000,g 15.0,4.0
# From MPC 82720
P/2012 U2 (PANSTARRS),e,10.7592,185.3219,228.2977,7.129372,0.0517758,0.50041106,203.8839,09/01.0/2023,2000,g 12.5,4.0
# From MPC 84024
P/2012 US27 (Siding Spring),e,39.3710,49.2115,0.8516,5.163351,0.0840053,0.64838323,325.0369,09/01.0/2023,2000,g 13.5,4.0
# From MPC 82721
P/2012 WA34 (Lemmon-PANSTARRS),e,6.0828,93.5529,356.6564,4.677573,0.0974256,0.34341250,5.2687,09/01.0/2023,2000,g 13.5,4.0
# From MPC 82721
P/2013 AL76 (Catalina),e,144.8886,146.0386,27.0395,6.501638,0.0594525,0.68561046,233.5372,09/01.0/2023,2000,g 16.0,4.0
# From MPC 91612
P/2013 G1 (Kowalski),e,5.4567,221.2913,51.5412,6.900467,0.0543734,0.51057527,193.3694,09/01.0/2023,2000,g 11.0,4.0
# From MPC 84025
P/2013 G4 (PANSTARRS),e,5.9163,339.6256,214.5916,4.436408,0.1054768,0.40904822,46.2918,09/01.0/2023,2000,g 15.0,4.0
# From MPC 91613
P/2013 J2 (McNaught),e,15.5020,289.3054,37.9133,6.223978,0.0634749,0.65696153,231.8427,09/01.0/2023,2000,g 13.0,4.0
# From MPC 86229
P/2013 N3 (PANSTARRS),e,2.1727,17.4936,323.9818,7.397800,0.0489835,0.59256644,170.5483,09/01.0/2023,2000,g 13.0,4.0
# From MPC 85834
P/2013 N5 (PANSTARRS),e,23.4583,187.1549,176.9633,6.797007,0.0556195,0.73239802,206.0954,09/01.0/2023,2000,g 17.0,4.0
# From MPC 85834
P/2013 P1 (PANSTARRS),e,18.7176,160.6220,138.2496,8.586145,0.0391748,0.60386723,150.4114,09/01.0/2023,2000,g 12.0,4.0
# From MPEC 2022-V95
P/2013 R3 (Catalina-PANSTARRS),e,0.8651,341.9608,11.3549,3.031215,0.1867579,0.27559442,322.3679,09/01.0/2023,2000,g 14.0,4.0
# From unp
P/2013 R3-A (Catalina-PANSTARRS),e,0.8642,341.9157,11.4338,3.030971,0.1867805,0.27552527,322.4329,09/01.0/2023,2000,g  9.0,4.0
# From MPEC 2015-M77
P/2013 R3-B (Catalina-PANSTARRS),e,0.8654,341.9716,11.3686,3.031190,0.1867602,0.27557048,322.3629,09/01.0/2023,2000,g  9.0,4.0
# From MPC 85835
P/2013 T1 (PANSTARRS),e,24.2999,10.0792,346.1919,5.855674,0.0695567,0.62419302,255.5315,09/01.0/2023,2000,g 16.5,4.0
# From MPC 86643
P/2013 T2 (Schwartz),e,9.4553,0.8034,345.5967,3.492328,0.1510190,0.50083543,206.8936,09/01.0/2023,2000,g 16.0,4.0
# From MPC 91613
P/2013 W1 (PANSTARRS),e,4.6978,117.8373,1.2157,3.486751,0.1513814,0.59316213,164.3471,09/01.0/2023,2000,g 17.5,4.0
# From MPC101095
P/2013 YG46 (Spacewatch),e,7.8580,48.8322,242.6555,3.276597,0.1661765,0.45502473,39.4805,09/01.0/2023,2000,g 10.0,4.0
# From MPC 89728
P/2014 A2 (Hill),e,24.5549,106.6382,356.1461,5.926406,0.0683151,0.64602504,246.8131,09/01.0/2023,2000,g 15.0,4.0
# From MPC 92981
P/2014 A3 (PANSTARRS),e,13.7175,229.9782,214.1912,4.606880,0.0996767,0.24638397,13.0877,09/01.0/2023,2000,g 12.0,4.0
# From MPC102095
P/2014 C1 (TOTAS),e,2.6932,167.8128,24.0522,3.029522,0.1869145,0.45181718,298.3418,09/01.0/2023,2000,g 15.5,4.0
# From MPEC 2022-WD2
C/2014 F3 (Sheppard-Trujillo),e,6.5253,326.1378,4.8420,14.47879,0.0178898,0.60521682,14.7587,09/01.0/2023,2000,g  6.0,4.0
# From MPC 98560
P/2014 L2 (NEOWISE),e,5.1965,149.3428,182.7331,6.306619,0.0622313,0.64749275,207.1113,09/01.0/2023,2000,g 12.0,4.0
# From MPC 90769
P/2014 L3 (Hill),e,6.2616,115.5038,178.7104,8.180637,0.0421234,0.77213918,141.1712,09/01.0/2023,2000,g 16.0,4.0
# From MPC 91614
P/2014 M4 (PANSTARRS),e,3.3461,263.1651,148.0896,5.866540,0.0693635,0.59596128,219.5528,09/01.0/2023,2000,g 15.0,4.0
# From MPEC 2022-K19
P/2014 MG4 (Spacewatch-PANSTARRS),e,9.3650,311.7141,298.9976,5.013813,0.0877914,0.25877914,327.3179,09/01.0/2023,2000,g  9.5,4.0
# From MPC 98560
P/2014 O3 (PANSTARRS),e,7.7926,87.6342,204.7988,7.580553,0.0472229,0.38368536,161.7806,09/01.0/2023,2000,g 10.5,4.0
# From MPEC 2023-J29
C/2014 OG392 (PANSTARRS),e,9.0329,145.8120,254.6191,12.25889,0.0229629,0.18651330,14.3404,09/01.0/2023,2000,g  6.0,4.0
# From MPC 91616
P/2014 U4 (PANSTARRS),e,6.4285,11.8894,347.8678,3.509865,0.1498885,0.46464147,139.3010,09/01.0/2023,2000,g 18.0,4.0
# From MPEC 2023-QF0
C/2014 UN271 (Bernardinelli-Bernstein),h,01/19.9030/2031,95.4316,189.9021,326.1769,1.002179,10.951727,2000,2.5,3.2
# From MPC 95211
P/2014 V1 (PANSTARRS),e,22.5190,166.1942,177.6782,5.479355,0.0768440,0.53421713,241.0929,09/01.0/2023,2000,g 14.0,4.0
# From MPEC 2023-QF0
P/2014 W1 (PANSTARRS),e,8.8368,246.1955,152.0829,4.473422,0.1041704,0.39004790,348.7044,09/01.0/2023,2000,g 15.5,4.0
# From MPC105542
P/2014 W4 (PANSTARRS),e,15.2838,33.3912,67.5743,6.585315,0.0583229,0.35398652,163.2753,09/01.0/2023,2000,g 11.0,4.0
# From MPC 94281
P/2014 X1 (Elenin),e,26.0582,61.5824,33.8579,6.203028,0.0637967,0.71006763,201.8227,09/01.0/2023,2000,g 15.0,4.0
# From MPC 92275
P/2015 A3 (PANSTARRS),e,172.5454,277.3858,249.5399,7.817147,0.0450953,0.85026252,140.5492,09/01.0/2023,2000,g 20.0,4.0
# From MPC 99270
P/2015 B1 (PANSTARRS),e,18.0626,352.8966,188.8179,9.485941,0.0337352,0.36627080,98.3610,09/01.0/2023,2000,g  8.5,4.0
# From MPC109141
P/2015 B4 (Lemmon-PANSTARRS),e,1.7652,266.0905,227.1755,8.512129,0.0396869,0.56112302,124.2862,09/01.0/2023,2000,g 11.0,4.0
# From MPC101096
P/2015 C1 (TOTAS-Gibbs),e,13.9330,348.7872,178.0453,6.570053,0.0585263,0.56195548,178.7079,09/01.0/2023,2000,g 12.5,4.0
# From MPC109141
P/2015 D5 (Kowalski),e,20.5445,74.0808,39.6125,8.949400,0.0368140,0.49059187,126.5650,09/01.0/2023,2000,g  9.0,4.0
# From MPC 96866
P/2015 D6 (Lemmon-PANSTARRS),e,20.2138,45.7953,124.9675,7.132239,0.0517446,0.36171413,154.7163,09/01.0/2023,2000,g 10.5,4.0
# From MPEC 2021-P47
P/2015 HG16 (PANSTARRS),e,18.9749,57.0923,46.9278,4.802803,0.0936401,0.35096585,321.4808,09/01.0/2023,2000,g 12.5,4.0
# From MPC 95213
P/2015 K5 (PANSTARRS),e,39.9396,134.2450,106.2643,6.727355,0.0564856,0.55154813,170.4106,09/01.0/2023,2000,g 13.5,4.0
# From MPC107684
P/2015 M2 (PANSTARRS),e,3.9685,86.5789,226.0730,7.247786,0.0505122,0.17908317,147.0462,09/01.0/2023,2000,g  8.5,4.0
# From MPC 99819
P/2015 P4 (PANSTARRS),e,8.7186,104.6428,280.7357,6.046588,0.0662885,0.58579057,184.0101,09/01.0/2023,2000,g 14.0,4.0
# From MPEC 2022-K19
P/2015 PD229 (Cameron-ISON),e,2.0237,342.6778,352.7445,7.197169,0.0510460,0.32694065,149.9182,09/01.0/2023,2000,g 11.5,2.0
# From MPC 96867
P/2015 Q2 (Pimentel),e,146.5586,228.5579,244.6756,7.353142,0.0494305,0.75095333,144.0396,09/01.0/2023,2000,g 15.5,4.0
# From MPC 98562
P/2015 R1 (PANSTARRS),e,22.7028,48.3099,300.6140,5.881253,0.0691034,0.63400007,206.1642,09/01.0/2023,2000,g 14.0,4.0
# From MPC 95734
P/2015 R2 (PANSTARRS),e,15.4832,168.5917,149.8767,4.484215,0.1037945,0.45257157,311.0476,09/01.0/2023,2000,g 14.5,4.0
# From MPC102953
P/2015 TO19 (Lemmon-PANSTARRS),e,6.5024,321.6150,89.2511,4.550347,0.1015400,0.35961396,277.3381,09/01.0/2023,2000,g 14.0,4.0
# From MPC110080
P/2015 TP200 (LINEAR),e,8.7793,7.0053,82.4409,7.262850,0.0503551,0.53674421,125.7232,09/01.0/2023,2000,g 11.0,4.0
# From MPC101098
P/2015 W2 (Catalina),e,11.6131,294.0924,117.6267,7.290643,0.0500674,0.63554554,144.5454,09/01.0/2023,2000,g 13.0,4.0
# From MPEC 2022-OB6
C/2015 XY1 (Lemmon),e,148.8526,281.5478,196.1411,8850,0.0000012,0.99910405,0.0000,04/25.0775/2018,2000,g  5.5,4.0
# From MPEC 2023-J29
P/2015 X3 (PANSTARRS),e,24.4164,77.2579,306.8780,5.002312,0.0880943,0.44013242,258.8693,09/01.0/2023,2000,g 15.0,4.0
# From MPC115881
P/2015 X6 (PANSTARRS),e,4.5655,106.9303,329.8016,2.751714,0.2159231,0.17342893,226.3820,09/01.0/2023,2000,g 16.0,4.0
# From MPEC 2023-P35
P/2015 XG422 (PANSTARRS),e,20.1743,178.9633,43.5618,4.339139,0.1090432,0.30737800,269.4970,09/01.0/2023,2000,g 13.5,4.0
# From MPC100282
P/2016 A2 (Christensen),e,26.4042,291.6184,141.2878,4.753649,0.0950962,0.27113907,285.5450,09/01.0/2023,2000,g 11.5,4.0
# From MPEC 2022-OB6
P/2016 A3 (PANSTARRS),e,8.5124,187.2024,340.8605,7.875850,0.0445921,0.38611766,103.4440,09/01.0/2023,2000,g 10.0,4.0
# From MPC102098
P/2016 A7 (PANSTARRS),e,16.6072,221.4998,352.4728,5.035804,0.0872169,0.56494232,240.1464,09/01.0/2023,2000,g 16.0,4.0
# From MPEC 2021-P47
P/2016 G1 (PANSTARRS),e,10.9713,204.0159,111.1484,2.583355,0.2373712,0.21045321,212.0864,09/01.0/2023,2000,g 14.0,4.0
# From MPEC 2017-D91
P/2016 J1-A (PANSTARRS),e,14.3288,199.8076,47.3766,3.176495,0.1740932,0.22756284,96.8182,09/01.0/2023,2000,g 16.5,4.0
# From MPEC 2017-A77
P/2016 J1-B (PANSTARRS),e,14.3316,199.8125,47.2686,3.176135,0.1741228,0.22741099,96.9719,09/01.0/2023,2000,g 17.0,4.0
# From MPEC 2022-ED3
C/2016 M1 (PANSTARRS),e,90.8194,92.2767,209.9265,15168,0.0000005,0.99985404,0.0000,08/10.3057/2018,2000,g  5.0,4.0
# From MPEC 2021-P47
C/2016 N6 (PANSTARRS),e,105.8769,298.8690,162.5645,925.1779,0.0000350,0.99712492,0.0000,07/17.2034/2018,2000,g  7.0,4.0
# From MPC102099
P/2016 P1 (PANSTARRS),e,24.3634,319.3548,270.7983,3.202093,0.1720098,0.28895475,139.5747,09/01.0/2023,2000,g 15.0,4.0
# From MPEC 2023-QF0
C/2016 Q2 (PANSTARRS),h,05/12.4304/2021,109.3724,322.3213,84.5584,1.003268,7.081575,2000,6.0,4.0
